{"fetched_at":"2026-03-29T16:36:15Z","count":15609,"tles":[{"name":"TIANHUI 5B","line1":"1 58201U 23168C   26086.55189934  .00000452  00000+0  55707-4 0  9990","line2":"2 58201  97.8212  95.0921 0002137  95.7319 264.4141 14.87579456130462","category":"Other"}]}