{
  "norad_id": 58201,
  "name": "TIANHUI 5B",
  "history": [
    {
      "epoch": "2026-03-27T13:14:44.102976",
      "apogee_km": 606.9935199801239,
      "perigee_km": 604.0087130491265,
      "latitude_deg": 64.19888278161483,
      "longitude_deg": -42.91766335978173,
      "semi_major_axis_km": 6983.638116514625,
      "eccentricity": 0.0002137,
      "inclination_deg": 97.8212,
      "raan_deg": 95.0921,
      "arg_perigee_deg": 95.7319,
      "mean_anomaly_deg": 264.4141,
      "mean_motion_rev_day": 14.87579456
    }
  ]
}